STARLINK-31795          
1 59645U 24082Q   26068.05831699  .00001819  00000+0  75591-4 0  9997
2 59645  43.0025  84.8034 0001377 283.4360  76.6339 15.27584811105389
FLOCK 4G-18             
1 62680U 25009BZ  26068.19114186  .00011766  00000+0  44319-3 0  9995
2 62680  97.4054 150.5008 0004100 335.7331  24.3715 15.27241676121267
